{
    "links": {
        "self": "http://www.neowsapp.com/rest/v1/neo/54053936?api_key=iIulBulltgU6a56xZRHN4H3l9WmuAYTsLGpBGhQ2"
    },
    "id": "54053936",
    "neo_reference_id": "54053936",
    "name": "(2020 RA4)",
    "designation": "2020 RA4",
    "nasa_jpl_url": "http://ssd.jpl.nasa.gov/sbdb.cgi?sstr=54053936",
    "absolute_magnitude_h": 26.83,
    "estimated_diameter": {
        "kilometers": {
            "estimated_diameter_min": 0.0114433973,
            "estimated_diameter_max": 0.0255882143
        },
        "meters": {
            "estimated_diameter_min": 11.4433973069,
            "estimated_diameter_max": 25.5882142717
        },
        "miles": {
            "estimated_diameter_min": 0.0071105952,
            "estimated_diameter_max": 0.0158997743
        },
        "feet": {
            "estimated_diameter_min": 37.5439556203,
            "estimated_diameter_max": 83.9508369112
        }
    },
    "is_potentially_hazardous_asteroid": false,
    "close_approach_data": [
        {
            "close_approach_date": "2020-09-15",
            "close_approach_date_full": "2020-Sep-15 20:47",
            "epoch_date_close_approach": 1600202820000,
            "relative_velocity": {
                "kilometers_per_second": "8.9933121637",
                "kilometers_per_hour": "32375.9237894095",
                "miles_per_hour": "20117.1399790361"
            },
            "miss_distance": {
                "astronomical": "0.028967341",
                "lunar": "11.268295649",
                "kilometers": "4333452.51316367",
                "miles": "2692682.530331846"
            },
            "orbiting_body": "Earth"
        }
    ],
    "orbital_data": {
        "orbit_id": "4",
        "orbit_determination_date": "2020-09-16 08:00:04",
        "first_observation_date": "2020-09-11",
        "last_observation_date": "2020-09-16",
        "data_arc_in_days": 5,
        "observations_used": 31,
        "orbit_uncertainty": "7",
        "minimum_orbit_intersection": ".0291937",
        "jupiter_tisserand_invariant": "3.331",
        "epoch_osculation": "2459000.5",
        "eccentricity": ".5571649419954264",
        "semi_major_axis": "2.326924636443569",
        "inclination": "9.79882488917978",
        "ascending_node_longitude": "352.7253346088908",
        "orbital_period": "1296.498156242531",
        "perihelion_distance": "1.030443806351759",
        "perihelion_argument": "8.65870681788995",
        "aphelion_distance": "3.623405466535378",
        "perihelion_time": "2459115.132627881217",
        "mean_anomaly": "328.1698382380744",
        "mean_motion": ".2776710466317517",
        "equinox": "J2000",
        "orbit_class": {
            "orbit_class_type": "AMO",
            "orbit_class_description": "Near-Earth asteroid orbits similar to that of 1221 Amor",
            "orbit_class_range": "1.017 AU < q (perihelion) < 1.3 AU"
        }
    },
    "is_sentry_object": false
}